PLEIADES NEO 3          
1 48268U 21034A   26204.51810853  .00001151  00000+0  15281-3 0  9990
2 48268  97.8942 278.7624 0001349 101.3678 258.7687 14.81670344283035
PLEIADES NEO 4          
1 49070U 21073E   26204.68690250  .00001009  00000+0  13483-3 0  9994
2 49070  97.8935 278.9245 0001392  97.5672 262.5698 14.81675971266776
