{"fetched_at":"2026-07-24T07:06:44.748Z","source":"https://celestrak.org/NORAD/elements/gp.php?NAME=PLEIADES&FORMAT=JSON","constellation":"pleiades-neo","records":[{"OBJECT_NAME":"PLEIADES NEO 3","OBJECT_ID":"2021-034A","EPOCH":"2026-07-23T12:26:04.576992","CLASSIFICATION_TYPE":"U","MEAN_MOTION":14.81670344,"ECCENTRICITY":0.0001349,"INCLINATION":97.8942,"RA_OF_ASC_NODE":278.7624,"ARG_OF_PERICENTER":101.3678,"MEAN_ANOMALY":258.7687,"EPHEMERIS_TYPE":0,"NORAD_CAT_ID":48268,"ELEMENT_SET_NO":999,"REV_AT_EPOCH":28303,"BSTAR":0.00015281,"MEAN_MOTION_DOT":0.00001151,"MEAN_MOTION_DDOT":0},{"OBJECT_NAME":"PLEIADES NEO 4","OBJECT_ID":"2021-073E","EPOCH":"2026-07-23T16:29:08.376000","CLASSIFICATION_TYPE":"U","MEAN_MOTION":14.81675971,"ECCENTRICITY":0.0001392,"INCLINATION":97.8935,"RA_OF_ASC_NODE":278.9245,"ARG_OF_PERICENTER":97.5672,"MEAN_ANOMALY":262.5698,"EPHEMERIS_TYPE":0,"NORAD_CAT_ID":49070,"ELEMENT_SET_NO":999,"REV_AT_EPOCH":26677,"BSTAR":0.00013483,"MEAN_MOTION_DOT":0.00001009,"MEAN_MOTION_DDOT":0}]}
